$$SOE
2460728.500000000, A.D. 2025-Feb-22 00:00:00.0000, -2.106403928733802E+08, -2.738797104385501E+08, -7.499993253399566E+07,
2460735.500000000, A.D. 2025-Mar-01 00:00:00.0000, -2.017743339426073E+08, -2.830723202276375E+08, -7.338311074232197E+07,
2460742.500000000, A.D. 2025-Mar-08 00:00:00.0000, -1.926898551107022E+08, -2.919586308740978E+08, -7.168685801365617E+07,
2460749.500000000, A.D. 2025-Mar-15 00:00:00.0000, -1.833999160300122E+08, -3.005337678923580E+08, -6.991417553948784E+07,
2460756.500000000, A.D. 2025-Mar-22 00:00:00.0000, -1.739174485332683E+08, -3.087935529397399E+08, -6.806810864335924E+07,
2460763.500000000, A.D. 2025-Mar-29 00:00:00.0000, -1.642553167428892E+08, -3.167344847288802E+08, -6.615173471918438E+07,
2460770.500000000, A.D. 2025-Apr-05 00:00:00.0000, -1.544262786143191E+08, -3.243537166071142E+08, -6.416815188344285E+07,
2460777.500000000, A.D. 2025-Apr-12 00:00:00.0000, -1.444429509118902E+08, -3.316490311068540E+08, -6.212046820536606E+07,
2460784.500000000, A.D. 2025-Apr-19 00:00:00.0000, -1.343177778300466E+08, -3.386188127404817E+08, -6.001179160543093E+07,
2460791.500000000, A.D. 2025-Apr-26 00:00:00.0000, -1.240630029720482E+08, -3.452620196144539E+08, -5.784522048638478E+07,
2460798.500000000, A.D. 2025-May-03 00:00:00.0000, -1.136906445191885E+08, -3.515781541909785E+08, -5.562383511679997E+07,
2460805.500000000, A.D. 2025-May-10 00:00:00.0000, -1.032124734766505E+08, -3.575672335095122E+08, -5.335068976993248E+07,
2460812.500000000, A.D. 2025-May-17 00:00:00.0000, -9.263999484654647E+07, -3.632297592018728E+08, -5.102880561663839E+07,
2460819.500000000, A.D. 2025-May-24 00:00:00.0000, -8.198443141875100E+07, -3.685666876206520E+08, -4.866116437796068E+07,
2460826.500000000, A.D. 2025-May-31 00:00:00.0000, -7.125670961013243E+07, -3.735794000090094E+08, -4.625070273037136E+07,
2460833.500000000, A.D. 2025-Jun-07 00:00:00.0000, -6.046744759202246E+07, -3.782696717187202E+08, -4.380030730363877E+07,
2460840.500000000, A.D. 2025-Jun-14 00:00:00.0000, -4.962694790301961E+07, -3.826396413245813E+08, -4.131281007904080E+07,
2460847.500000000, A.D. 2025-Jun-21 00:00:00.0000, -3.874519315715787E+07, -3.866917830585519E+08, -3.879098453294507E+07,
2460854.500000000, A.D. 2025-Jun-28 00:00:00.0000, -2.783184154323430E+07, -3.904288809264825E+08, -3.623754263221011E+07,
2460861.500000000, A.D. 2025-Jul-05 00:00:00.0000, -1.689622345684429E+07, -3.938540024551191E+08, -3.365513232830554E+07,
2460868.500000000, A.D. 2025-Jul-12 00:00:00.0000, -5.947340283909890E+06, -3.969704729564799E+08, -3.104633546823230E+07,
2460875.500000000, A.D. 2025-Jul-19 00:00:00.0000, 5.006135020774825E+06, -3.997818509465703E+08, -2.841366614805499E+07,
2460882.500000000, A.D. 2025-Jul-26 00:00:00.0000, 1.595585592972907E+07, -4.022919048186364E+08, -2.575956949461910E+07,
2460889.500000000, A.D. 2025-Aug-02 00:00:00.0000, 2.689379913132874E+07, -4.045045907761956E+08, -2.308642084203440E+07,
2460896.500000000, A.D. 2025-Aug-09 00:00:00.0000, 3.781226027855121E+07, -4.064240320532365E+08, -2.039652526971692E+07,
2460903.500000000, A.D. 2025-Aug-16 00:00:00.0000, 4.870384891051044E+07, -4.080544994860532E+08, -1.769211747898653E+07,
2460910.500000000, A.D. 2025-Aug-23 00:00:00.0000, 5.956148296531987E+07, -4.094003934113381E+08, -1.497536199990514E+07,
2460917.500000000, A.D. 2025-Aug-30 00:00:00.0000, 7.037838332932946E+07, -4.104662261583202E+08, -1.224835366799212E+07,
2460924.500000000, A.D. 2025-Sep-06 00:00:00.0000, 8.114806711118126E+07, -4.112566041081417E+08, -9.513118128680497E+06,
2460931.500000000, A.D. 2025-Sep-13 00:00:00.0000, 9.186433806772256E+07, -4.117762117692668E+08, -6.771612390978366E+06,
2460938.500000000, A.D. 2025-Sep-20 00:00:00.0000, 1.025212775451115E+08, -4.120297994748739E+08, -4.025725838954121E+06,
2460945.500000000, A.D. 2025-Sep-27 00:00:00.0000, 1.131132370753803E+08, -4.120221715507374E+08, -1.277281519826204E+06,
2460952.500000000, A.D. 2025-Oct-04 00:00:00.0000, 1.236348306844093E+08, -4.117581743720276E+08, 1.471962542597890E+06,
2460959.500000000, A.D. 2025-Oct-11 00:00:00.0000, 1.340809266022188E+08, -4.112426852069482E+08, 4.220311986662090E+06,
2460966.500000000, A.D. 2025-Oct-18 00:00:00.0000, 1.444466387165329E+08, -4.104806020749916E+08, 6.966134673779547E+06,
2460973.500000000, A.D. 2025-Oct-25 00:00:00.0000, 1.547273179595417E+08, -4.094768345613645E+08, 9.707859176245213E+06,
2460980.500000000, A.D. 2025-Nov-01 00:00:00.0000, 1.649185437113960E+08, -4.082362955241876E+08, 1.244397320442542E+07,
2460987.500000000, A.D. 2025-Nov-08 00:00:00.0000, 1.750161152937292E+08, -4.067638936781361E+08, 1.517302198075131E+07,
2460994.500000000, A.D. 2025-Nov-15 00:00:00.0000, 1.850160437351400E+08, -4.050645270666491E+08, 1.789360655392218E+07,
2461001.500000000, A.D. 2025-Nov-22 00:00:00.0000, 1.949145442406520E+08, -4.031430771583012E+08, 2.060438204498807E+07,
2461008.500000000, A.D. 2025-Nov-29 00:00:00.0000, 2.047080292362496E+08, -4.010044023898815E+08, 2.330405594164510E+07,
2461015.500000000, A.D. 2025-Dec-06 00:00:00.0000, 2.143930997305422E+08, -3.986533312504693E+08, 2.599138664680937E+07,
2461022.500000000, A.D. 2025-Dec-13 00:00:00.0000, 2.239665354431113E+08, -3.960946582351578E+08, 2.866518197324695E+07,
2461029.500000000, A.D. 2025-Dec-20 00:00:00.0000, 2.334252872067116E+08, -3.933331416056755E+08, 3.132429735360262E+07,
2461036.500000000, A.D. 2025-Dec-27 00:00:00.0000, 2.427664705809843E+08, -3.903735003304266E+08, 3.396763408171831E+07,
2461043.500000000, A.D. 2026-Jan-03 00:00:00.0000, 2.519873592264870E+08, -3.872204107852775E+08, 3.659413767374749E+07,
2461050.500000000, A.D. 2026-Jan-10 00:00:00.0000, 2.610853781538124E+08, -3.838785038607849E+08, 3.920279628768124E+07,
2461057.500000000, A.D. 2026-Jan-17 00:00:00.0000, 2.700580970829431E+08, -3.803523625352008E+08, 4.179263917580540E+07,
2461064.500000000, A.D. 2026-Jan-24 00:00:00.0000, 2.789032239915951E+08, -3.766465198592399E+08, 4.436273516727354E+07,
2461071.500000000, A.D. 2026-Jan-31 00:00:00.0000, 2.876185988759372E+08, -3.727654573297157E+08, 4.691219117976101E+07,
2461078.500000000, A.D. 2026-Feb-07 00:00:00.0000, 2.962021877851452E+08, -3.687136036808357E+08, 4.944015075116087E+07,
2461085.500000000, A.D. 2026-Feb-14 00:00:00.0000, 3.046520773830808E+08, -3.644953340827158E+08, 5.194579256815958E+07,
2461092.500000000, A.D. 2026-Feb-21 00:00:00.0000, 3.129664704244308E+08, -3.601149691479721E+08, 5.442832900490136E+07,
2461099.500000000, A.D. 2026-Feb-28 00:00:00.0000, 3.211436810583668E+08, -3.555767725738774E+08, 5.688700486709926E+07,
2461106.500000000, A.D. 2026-Mar-07 00:00:00.0000, 3.291821278963920E+08, -3.508849493519667E+08, 5.932109637193719E+07,
2461113.500000000, A.D. 2026-Mar-14 00:00:00.0000, 3.370803276140132E+08, -3.460436468591800E+08, 6.172990991856205E+07,
2461120.500000000, A.D. 2026-Mar-21 00:00:00.0000, 3.448368908637636E+08, -3.410569559148976E+08, 6.411278072235003E+07,
2461127.500000000, A.D. 2026-Mar-28 00:00:00.0000, 3.524505184850540E+08, -3.359289107596185E+08, 6.646907158127778E+07,
2461134.500000000, A.D. 2026-Apr-04 00:00:00.0000, 3.599199974014835E+08, -3.306634889066054E+08, 6.879817175066176E+07,
2461141.500000000, A.D. 2026-Apr-11 00:00:00.0000, 3.672441964736412E+08, -3.252646112130703E+08, 7.109949587136894E+07,
2461148.500000000, A.D. 2026-Apr-18 00:00:00.0000, 3.744220624608006E+08, -3.197361421652666E+08, 7.337248293589100E+07,
2461155.500000000, A.D. 2026-Apr-25 00:00:00.0000, 3.814526161314732E+08, -3.140818903515037E+08, 7.561659528874068E+07,
2461162.500000000, A.D. 2026-May-02 00:00:00.0000, 3.883349485475466E+08, -3.083056091422974E+08, 7.783131765523350E+07,
2461169.500000000, A.D. 2026-May-09 00:00:00.0000, 3.950682176405796E+08, -3.024109976340331E+08, 8.001615618090700E+07,
2461176.500000000, A.D. 2026-May-16 00:00:00.0000, 4.016516454525575E+08, -2.964017017084432E+08, 8.217063745725691E+07,
2461183.500000000, A.D. 2026-May-23 00:00:00.0000, 4.080845160880517E+08, -2.902813141773197E+08, 8.429430761189993E+07,
2461190.500000000, A.D. 2026-May-30 00:00:00.0000, 4.143661722944486E+08, -2.840533736863946E+08, 8.638673167938454E+07,
2461197.500000000, A.D. 2026-Jun-06 00:00:00.0000, 4.204960103467916E+08, -2.777213656458969E+08, 8.844749301314586E+07,
2461204.500000000, A.D. 2026-Jun-13 00:00:00.0000, 4.264734768967625E+08, -2.712887249820860E+08, 9.047619241705677E+07,
2461211.500000000, A.D. 2026-Jun-20 00:00:00.0000, 4.322980672794920E+08, -2.647588377774687E+08, 9.247244728036582E+07,
2461218.500000000, A.D. 2026-Jun-27 00:00:00.0000, 4.379693235750324E+08, -2.581350421345726E+08, 9.443589084294122E+07,
2461225.500000000, A.D. 2026-Jul-04 00:00:00.0000, 4.434868324194547E+08, -2.514206290337400E+08, 9.636617152635729E+07,
2461232.500000000, A.D. 2026-Jul-11 00:00:00.0000, 4.488502228146143E+08, -2.446188433127498E+08, 9.826295229557130E+07,
2461239.500000000, A.D. 2026-Jul-18 00:00:00.0000, 4.540591640245774E+08, -2.377328847388174E+08, 1.001259100436359E+08,
2461246.500000000, A.D. 2026-Jul-25 00:00:00.0000, 4.591133635785452E+08, -2.307659091669610E+08, 1.019547349963257E+08,
2461253.500000000, A.D. 2026-Aug-01 00:00:00.0000, 4.640125654237546E+08, -2.237210298299312E+08, 1.037491301272122E+08,
2461260.500000000, A.D. 2026-Aug-08 00:00:00.0000, 4.687565484385018E+08, -2.166013187927443E+08, 1.055088105593354E+08,
2461267.500000000, A.D. 2026-Aug-15 00:00:00.0000, 4.733451257158697E+08, -2.094098081184301E+08, 1.072335029510605E+08,
2461274.500000000, A.D. 2026-Aug-22 00:00:00.0000, 4.777781438535860E+08, -2.021494895211052E+08, 1.089229450350476E+08,
2461281.500000000, A.D. 2026-Aug-29 00:00:00.0000, 4.820554799576590E+08, -1.948233138777335E+08, 1.105768854076922E+08,
2461288.500000000, A.D. 2026-Sep-05 00:00:00.0000, 4.861770384889560E+08, -1.874341934654980E+08, 1.121950831379490E+08,
2461295.500000000, A.D. 2026-Sep-12 00:00:00.0000, 4.901427504029826E+08, -1.799850044270241E+08, 1.137773071730183E+08,
$$EOE